STARLETTE               
1 07646U 75010A   24066.56337310 -.00000135  00000+0  53233-5 0  9992
2 07646  49.8235 151.0637 0205758 192.4734 167.1020 13.82325840479368
LAGEOS 1                
1 08820U 76039A   24066.48712802  .00000043  00000+0  00000+0 0  9998
2 08820 109.8342 254.0893 0044475 121.0633 256.1148  6.38664779859968
AJISAI (EGS)            
1 16908U 86061A   24066.59486796 -.00000109  00000+0 -84057-4 0  9996
2 16908  50.0081 187.5743 0011284 220.2024 229.2382 12.44504377376712
COSMOS 1989 (ETALON 1)  
1 19751U 89001C   24066.13763597  .00000058  00000+0  00000+0 0  9991
2 19751  64.5088 100.7826 0023984 215.7113 220.3626  2.13156163273614
COSMOS 2024 (ETALON 2)  
1 20026U 89039C   24066.24310583 -.00000055  00000+0  00000+0 0  9992
2 20026  65.3792 339.0702 0019216 217.7736 314.3008  2.13204260270749
LAGEOS 2                
1 22195U 92070B   24066.35715153 -.00000009  00000+0  00000+0 0  9993
2 22195  52.6568  72.9606 0137661 182.6814 314.5899  6.47293843741509
STELLA                  
1 22824U 93061B   24066.61929591 -.00000018  00000+0  11614-4 0  9993
2 22824  98.8941 111.2339 0007177 130.1060 350.6048 14.27418891585999
LARETS                  
1 27944U 03042F   24066.55629036  .00000187  00000+0  45472-4 0  9990
2 27944  98.2958 206.0613 0013474 114.5188 245.7420 14.63465678 91569
LARES                   
1 38077U 12006A   24066.56234854 -.00000036  00000+0  14846-4 0  9995
2 38077  69.4879 274.4455 0006597 114.7469 245.4245 12.54931575552606
LARES-2                 
1 53105U 22080A   24064.93034133  .00000031  00000+0  00000+0 0  9990
2 53105  70.1376 231.4321 0005133 161.2118 198.8614  6.38965256 38365
